CCSDS_OMM_VERS = 2.0
CREATION_DATE  = 
ORIGINATOR     = 

OBJECT_NAME    = ALOS (DAICHI)
OBJECT_ID      = 2006-002A
CENTER_NAME    = EARTH
REF_FRAME      = TEME
TIME_SYSTEM    = UTC
MEAN_ELEMENT_THEORY = SGP/SGP4

EPOCH          = 2025-12-08T14:38:15.018720
MEAN_MOTION    = 14.69468975
ECCENTRICITY   = .00009708
INCLINATION    = 98.1088
RA_OF_ASC_NODE = 294.1263
ARG_OF_PERICENTER = 112.1726
MEAN_ANOMALY   = 247.9583

EPHEMERIS_TYPE = 0
CLASSIFICATION_TYPE = U
NORAD_CAT_ID   = 28931
ELEMENT_SET_NO = 999
REV_AT_EPOCH   = 6010
BSTAR          = .46852725E-3
MEAN_MOTION_DOT = .2727E-4
MEAN_MOTION_DDOT = 0

CCSDS_OMM_VERS = 2.0
CREATION_DATE  = 
ORIGINATOR     = 

OBJECT_NAME    = H-2A R/B
OBJECT_ID      = 2006-002B
CENTER_NAME    = EARTH
REF_FRAME      = TEME
TIME_SYSTEM    = UTC
MEAN_ELEMENT_THEORY = SGP/SGP4

EPOCH          = 2025-12-08T14:57:05.389056
MEAN_MOTION    = 15.14439366
ECCENTRICITY   = .00544975
INCLINATION    = 98.2319
RA_OF_ASC_NODE = 117.0357
ARG_OF_PERICENTER = 190.2777
MEAN_ANOMALY   = 169.7343

EPHEMERIS_TYPE = 0
CLASSIFICATION_TYPE = U
NORAD_CAT_ID   = 28932
ELEMENT_SET_NO = 999
REV_AT_EPOCH   = 8064
BSTAR          = .75144788E-3
MEAN_MOTION_DOT = .1427E-3
MEAN_MOTION_DDOT = 0

CCSDS_OMM_VERS = 2.0
CREATION_DATE  = 
ORIGINATOR     = 

OBJECT_NAME    = RESURS-DK 1
OBJECT_ID      = 2006-021A
CENTER_NAME    = EARTH
REF_FRAME      = TEME
TIME_SYSTEM    = UTC
MEAN_ELEMENT_THEORY = SGP/SGP4

EPOCH          = 2025-12-08T15:54:36.089280
MEAN_MOTION    = 15.12127563
ECCENTRICITY   = .00076239
INCLINATION    = 69.9338
RA_OF_ASC_NODE = 112.3734
ARG_OF_PERICENTER = 262.4591
MEAN_ANOMALY   = 97.5709

EPHEMERIS_TYPE = 0
CLASSIFICATION_TYPE = U
NORAD_CAT_ID   = 29228
ELEMENT_SET_NO = 999
REV_AT_EPOCH   = 7376
BSTAR          = .28749125E-3
MEAN_MOTION_DOT = .4863E-4
MEAN_MOTION_DDOT = 0

CCSDS_OMM_VERS = 2.0
CREATION_DATE  = 
ORIGINATOR     = 

OBJECT_NAME    = CZ-4B R/B
OBJECT_ID      = 2006-046C
CENTER_NAME    = EARTH
REF_FRAME      = TEME
TIME_SYSTEM    = UTC
MEAN_ELEMENT_THEORY = SGP/SGP4

EPOCH          = 2025-12-08T14:38:54.577824
MEAN_MOTION    = 15.15806758
ECCENTRICITY   = .00330226
INCLINATION    = 97.5733
RA_OF_ASC_NODE = 22.7596
ARG_OF_PERICENTER = 221.2332
MEAN_ANOMALY   = 138.6406

EPHEMERIS_TYPE = 0
CLASSIFICATION_TYPE = U
NORAD_CAT_ID   = 29507
ELEMENT_SET_NO = 999
REV_AT_EPOCH   = 4624
BSTAR          = .39658924E-3
MEAN_MOTION_DOT = .7612E-4
MEAN_MOTION_DDOT = 0

CCSDS_OMM_VERS = 2.0
CREATION_DATE  = 
ORIGINATOR     = 

OBJECT_NAME    = CZ-2C R/B
OBJECT_ID      = 2007-010B
CENTER_NAME    = EARTH
REF_FRAME      = TEME
TIME_SYSTEM    = UTC
MEAN_ELEMENT_THEORY = SGP/SGP4

EPOCH          = 2025-12-08T13:29:16.599552
MEAN_MOTION    = 14.20207579
ECCENTRICITY   = .00587378
INCLINATION    = 98.3974
RA_OF_ASC_NODE = 95.4231
ARG_OF_PERICENTER = 198.1858
MEAN_ANOMALY   = 161.7219

EPHEMERIS_TYPE = 0
CLASSIFICATION_TYPE = U
NORAD_CAT_ID   = 31114
ELEMENT_SET_NO = 999
REV_AT_EPOCH   = 96678
BSTAR          = .19500607E-3
MEAN_MOTION_DOT = .383E-5
MEAN_MOTION_DDOT = 0

CCSDS_OMM_VERS = 2.0
CREATION_DATE  = 
ORIGINATOR     = 

OBJECT_NAME    = COSMO-SKYMED 1
OBJECT_ID      = 2007-023A
CENTER_NAME    = EARTH
REF_FRAME      = TEME
TIME_SYSTEM    = UTC
MEAN_ELEMENT_THEORY = SGP/SGP4

EPOCH          = 2025-12-08T13:46:00.447456
MEAN_MOTION    = 14.95717172
ECCENTRICITY   = .00010586
INCLINATION    = 97.8834
RA_OF_ASC_NODE = 167.9460
ARG_OF_PERICENTER = 81.2716
MEAN_ANOMALY   = 278.8625

EPHEMERIS_TYPE = 0
CLASSIFICATION_TYPE = U
NORAD_CAT_ID   = 31598
ELEMENT_SET_NO = 999
REV_AT_EPOCH   = 128
BSTAR          = .5162512E-3
MEAN_MOTION_DOT = .5691E-4
MEAN_MOTION_DDOT = 0

CCSDS_OMM_VERS = 2.0
CREATION_DATE  = 
ORIGINATOR     = 

OBJECT_NAME    = COSMOS 2428
OBJECT_ID      = 2007-029A
CENTER_NAME    = EARTH
REF_FRAME      = TEME
TIME_SYSTEM    = UTC
MEAN_ELEMENT_THEORY = SGP/SGP4

EPOCH          = 2025-12-08T13:28:15.817152
MEAN_MOTION    = 14.12888452
ECCENTRICITY   = .00034266
INCLINATION    = 70.9370
RA_OF_ASC_NODE = 34.6531
ARG_OF_PERICENTER = 29.7305
MEAN_ANOMALY   = 330.4010

EPHEMERIS_TYPE = 0
CLASSIFICATION_TYPE = U
NORAD_CAT_ID   = 31792
ELEMENT_SET_NO = 999
REV_AT_EPOCH   = 95122
BSTAR          = .92768592E-4
MEAN_MOTION_DOT = .125E-5
MEAN_MOTION_DDOT = 0

CCSDS_OMM_VERS = 2.0
CREATION_DATE  = 
ORIGINATOR     = 

OBJECT_NAME    = SL-16 R/B
OBJECT_ID      = 2007-029B
CENTER_NAME    = EARTH
REF_FRAME      = TEME
TIME_SYSTEM    = UTC
MEAN_ELEMENT_THEORY = SGP/SGP4

EPOCH          = 2025-12-08T12:15:10.870272
MEAN_MOTION    = 14.14815201
ECCENTRICITY   = .00023056
INCLINATION    = 70.9762
RA_OF_ASC_NODE = 4.0488
ARG_OF_PERICENTER = 263.3208
MEAN_ANOMALY   = 208.0840

EPHEMERIS_TYPE = 0
CLASSIFICATION_TYPE = U
NORAD_CAT_ID   = 31793
ELEMENT_SET_NO = 999
REV_AT_EPOCH   = 95247
BSTAR          = -.55303079E-4
MEAN_MOTION_DOT = -.155E-5
MEAN_MOTION_DDOT = 0

CCSDS_OMM_VERS = 2.0
CREATION_DATE  = 
ORIGINATOR     = 

OBJECT_NAME    = KORONAS-FOTON
OBJECT_ID      = 2009-003A
CENTER_NAME    = EARTH
REF_FRAME      = TEME
TIME_SYSTEM    = UTC
MEAN_ELEMENT_THEORY = SGP/SGP4

EPOCH          = 2025-12-08T12:48:54.582912
MEAN_MOTION    = 15.41038141
ECCENTRICITY   = .00130569
INCLINATION    = 82.4307
RA_OF_ASC_NODE = 10.4631
ARG_OF_PERICENTER = 121.6035
MEAN_ANOMALY   = 238.6487

EPHEMERIS_TYPE = 0
CLASSIFICATION_TYPE = U
NORAD_CAT_ID   = 33504
ELEMENT_SET_NO = 999
REV_AT_EPOCH   = 93169
BSTAR          = .35576126E-3
MEAN_MOTION_DOT = .14772E-3
MEAN_MOTION_DDOT = 0

CCSDS_OMM_VERS = 2.0
CREATION_DATE  = 
ORIGINATOR     = 

OBJECT_NAME    = CZ-2C R/B
OBJECT_ID      = 2011-030B
CENTER_NAME    = EARTH
REF_FRAME      = TEME
TIME_SYSTEM    = UTC
MEAN_ELEMENT_THEORY = SGP/SGP4

EPOCH          = 2025-12-08T15:04:52.940928
MEAN_MOTION    = 14.80881778
ECCENTRICITY   = .0051441
INCLINATION    = 97.8412
RA_OF_ASC_NODE = 296.8260
ARG_OF_PERICENTER = 287.3976
MEAN_ANOMALY   = 246.5495

EPHEMERIS_TYPE = 0
CLASSIFICATION_TYPE = U
NORAD_CAT_ID   = 37731
ELEMENT_SET_NO = 999
REV_AT_EPOCH   = 77661
BSTAR          = .39327024E-3
MEAN_MOTION_DOT = .3053E-4
MEAN_MOTION_DDOT = 0

CCSDS_OMM_VERS = 2.0
CREATION_DATE  = 
ORIGINATOR     = 

OBJECT_NAME    = H-2A R/B
OBJECT_ID      = 2012-025E
CENTER_NAME    = EARTH
REF_FRAME      = TEME
TIME_SYSTEM    = UTC
MEAN_ELEMENT_THEORY = SGP/SGP4

EPOCH          = 2025-12-08T14:56:11.834880
MEAN_MOTION    = 14.94407023
ECCENTRICITY   = .00436751
INCLINATION    = 98.4596
RA_OF_ASC_NODE = 297.5349
ARG_OF_PERICENTER = 249.9729
MEAN_ANOMALY   = 109.6785

EPHEMERIS_TYPE = 0
CLASSIFICATION_TYPE = U
NORAD_CAT_ID   = 38341
ELEMENT_SET_NO = 999
REV_AT_EPOCH   = 73461
BSTAR          = .54872829E-3
MEAN_MOTION_DOT = .5955E-4
MEAN_MOTION_DDOT = 0

CCSDS_OMM_VERS = 2.0
CREATION_DATE  = 
ORIGINATOR     = 

OBJECT_NAME    = SHIJIAN-16 (SJ-16)
OBJECT_ID      = 2013-057A
CENTER_NAME    = EARTH
REF_FRAME      = TEME
TIME_SYSTEM    = UTC
MEAN_ELEMENT_THEORY = SGP/SGP4

EPOCH          = 2025-12-08T13:53:43.505664
MEAN_MOTION    = 14.91969901
ECCENTRICITY   = .00175622
INCLINATION    = 74.9716
RA_OF_ASC_NODE = 357.5267
ARG_OF_PERICENTER = 329.6219
MEAN_ANOMALY   = 30.3949

EPHEMERIS_TYPE = 0
CLASSIFICATION_TYPE = U
NORAD_CAT_ID   = 39358
ELEMENT_SET_NO = 999
REV_AT_EPOCH   = 65791
BSTAR          = .21513717E-3
MEAN_MOTION_DOT = .2157E-4
MEAN_MOTION_DDOT = 0

