ALOS (DAICHI)           
1 28931U 06002A   25342.60989605  .00002727  00000+0  46853-3 0  9996
2 28931  98.1088 294.1263 0000970 112.1726 247.9583 14.69468975 60106
H-2A R/B                
1 28932U 06002B   25342.62297904  .00014270  00000+0  75145-3 0  9995
2 28932  98.2319 117.0357 0054497 190.2777 169.7343 15.14439366 80647
RESURS-DK 1             
1 29228U 06021A   25342.66291770  .00004863  00000+0  28749-3 0  9999
2 29228  69.9338 112.3734 0007623 262.4591  97.5709 15.12127563 73764
CZ-4B R/B               
1 29507U 06046C   25342.61035391  .00007612  00000+0  39659-3 0  9993
2 29507  97.5733  22.7596 0033022 221.2332 138.6406 15.15806758 46245
CZ-2C R/B               
1 31114U 07010B   25342.56199768  .00000383  00000+0  19501-3 0  9997
2 31114  98.3974  95.4231 0058737 198.1858 161.7219 14.20207579966786
COSMO-SKYMED 1          
1 31598U 07023A   25342.57361629  .00005691  00000+0  51625-3 0  9995
2 31598  97.8834 167.9460 0001058  81.2716 278.8625 14.95717172  1282
COSMOS 2428             
1 31792U 07029A   25342.56129418  .00000125  00000+0  92769-4 0  9996
2 31792  70.9370  34.6531 0003426  29.7305 330.4010 14.12888452951226
SL-16 R/B               
1 31793U 07029B   25342.51054248 -.00000155  00000+0 -55303-4 0  9998
2 31793  70.9762   4.0488 0002305 263.3208 208.0840 14.14815201952470
KORONAS-FOTON           
1 33504U 09003A   25342.53396508  .00014772  00000+0  35576-3 0  9991
2 33504  82.4307  10.4631 0013056 121.6035 238.6487 15.41038141931693
CZ-2C R/B               
1 37731U 11030B   25342.62839052  .00003053  00000+0  39327-3 0  9994
2 37731  97.8412 296.8260 0051441 287.3976 246.5495 14.80881778776618
H-2A R/B                
1 38341U 12025E   25342.62235920  .00005955  00000+0  54873-3 0  9997
2 38341  98.4596 297.5349 0043675 249.9729 109.6785 14.94407023734619
SHIJIAN-16 (SJ-16)      
1 39358U 13057A   25342.57897576  .00002157  00000+0  21514-3 0  9994
2 39358  74.9716 357.5267 0017562 329.6219  30.3949 14.91969901657917
